{
  "type": "FeatureCollection",
  "features": [
    {
      "type": "Feature",
      "properties": {
        "norad_id": 31735,
        "name": "FENGYUN 1C DEB",
        "group": "fengyun-1c-debris",
        "lat": 8.154392131440888,
        "lon": -87.01803881502967,
        "alt_km": 764.4265744164841,
        "timestamp": "2025-12-14T09:36:23.320637+00:00",
        "meta_object_name": "FENGYUN 1C DEB",
        "meta_object_id": "1999-025CEJ",
        "meta_epoch": "2025-12-13T12:49:52.166784",
        "meta_mean_motion": 14.42548153,
        "meta_eccentricity": 0.0058798,
        "meta_inclination": 98.5795,
        "meta_ra_of_asc_node": 90.8718,
        "meta_arg_of_pericenter": 281.9329,
        "meta_mean_anomaly": 77.5272,
        "meta_ephemeris_type": 0,
        "meta_classification_type": "U",
        "meta_norad_cat_id": 31735,
        "meta_element_set_no": 999,
        "meta_rev_at_epoch": 96676,
        "meta_bstar": 0.00066683647,
        "meta_mean_motion_dot": 2.212e-05,
        "meta_mean_motion_ddot": 0,
        "tle_line1": "1 31735U 99025CEJ 25347.53463156  .00002212  00000+0  66684-3 0  9997",
        "tle_line2": "2 31735  98.5795  90.8718 0058798 281.9329  77.5272 14.42548153966769"
      },
      "geometry": {
        "type": "Point",
        "coordinates": [
          -87.01803881502967,
          8.154392131440888
        ]
      }
    },
    {
      "type": "Feature",
      "properties": {
        "norad_id": 31736,
        "name": "FENGYUN 1C DEB",
        "group": "fengyun-1c-debris",
        "lat": 18.979362387991063,
        "lon": -12.746060519730595,
        "alt_km": 851.6314390771859,
        "timestamp": "2025-12-14T09:36:23.320647+00:00",
        "meta_object_name": "FENGYUN 1C DEB",
        "meta_object_id": "1999-025CEK",
        "meta_epoch": "2025-12-12T06:34:27.961536",
        "meta_mean_motion": 14.14183132,
        "meta_eccentricity": 0.00110525,
        "meta_inclination": 98.6783,
        "meta_ra_of_asc_node": 348.1999,
        "meta_arg_of_pericenter": 242.1513,
        "meta_mean_anomaly": 117.8541,
        "meta_ephemeris_type": 0,
        "meta_classification_type": "U",
        "meta_norad_cat_id": 31736,
        "meta_element_set_no": 999,
        "meta_rev_at_epoch": 64058,
        "meta_bstar": 0.00023918785,
        "meta_mean_motion_dot": 4.13e-06,
        "meta_mean_motion_ddot": 0,
        "tle_line1": "1 31736U 99025CEK 25346.27393474  .00000413  00000+0  23919-3 0  9998",
        "tle_line2": "2 31736  98.6783 348.1999 0011052 242.1513 117.8541 14.14183132640581"
      },
      "geometry": {
        "type": "Point",
        "coordinates": [
          -12.746060519730595,
          18.979362387991063
        ]
      }
    },
    {
      "type": "Feature",
      "properties": {
        "norad_id": 31737,
        "name": "FENGYUN 1C DEB",
        "group": "fengyun-1c-debris",
        "lat": -79.89773709510807,
        "lon": 150.50139036171433,
        "alt_km": 701.1398746413988,
        "timestamp": "2025-12-14T09:36:23.320659+00:00",
        "meta_object_name": "FENGYUN 1C DEB",
        "meta_object_id": "1999-025CEL",
        "meta_epoch": "2025-12-11T14:02:52.739232",
        "meta_mean_motion": 14.687266,
        "meta_eccentricity": 0.01489053,
        "meta_inclination": 97.9176,
        "meta_ra_of_asc_node": 19.1358,
        "meta_arg_of_pericenter": 19.4036,
        "meta_mean_anomaly": 130.9872,
        "meta_ephemeris_type": 0,
        "meta_classification_type": "U",
        "meta_norad_cat_id": 31737,
        "meta_element_set_no": 999,
        "meta_rev_at_epoch": 98182,
        "meta_bstar": 0.00088130791,
        "meta_mean_motion_dot": 6.03e-05,
        "meta_mean_motion_ddot": 0,
        "tle_line1": "1 31737U 99025CEL 25345.58533263  .00006030  00000+0  88131-3 0  9992",
        "tle_line2": "2 31737  97.9176  19.1358 0148905  19.4036 130.9872 14.68726600981827"
      },
      "geometry": {
        "type": "Point",
        "coordinates": [
          150.50139036171433,
          -79.89773709510807
        ]
      }
    },
    {
      "type": "Feature",
      "properties": {
        "norad_id": 31738,
        "name": "FENGYUN 1C DEB",
        "group": "fengyun-1c-debris",
        "lat": 18.613580036445416,
        "lon": -121.17296333865448,
        "alt_km": 846.0513199556617,
        "timestamp": "2025-12-14T09:36:23.320670+00:00",
        "meta_object_name": "FENGYUN 1C DEB",
        "meta_object_id": "1999-025CEM",
        "meta_epoch": "2025-12-11T23:39:03.757824",
        "meta_mean_motion": 13.85046302,
        "meta_eccentricity": 0.0307554,
        "meta_inclination": 99.3602,
        "meta_ra_of_asc_node": 53.2298,
        "meta_arg_of_pericenter": 102.2478,
        "meta_mean_anomaly": 261.3293,
        "meta_ephemeris_type": 0,
        "meta_classification_type": "U",
        "meta_norad_cat_id": 31738,
        "meta_element_set_no": 999,
        "meta_rev_at_epoch": 62247,
        "meta_bstar": 0.0021693,
        "meta_mean_motion_dot": 3.509e-05,
        "meta_mean_motion_ddot": 0,
        "tle_line1": "1 31738U 99025CEM 25345.98546016  .00003509  00000+0  21693-2 0  9994",
        "tle_line2": "2 31738  99.3602  53.2298 0307554 102.2478 261.3293 13.85046302622479"
      },
      "geometry": {
        "type": "Point",
        "coordinates": [
          -121.17296333865448,
          18.613580036445416
        ]
      }
    },
    {
      "type": "Feature",
      "properties": {
        "norad_id": 31739,
        "name": "FENGYUN 1C DEB",
        "group": "fengyun-1c-debris",
        "lat": -77.12753453030037,
        "lon": 86.07050532024513,
        "alt_km": 918.220133095263,
        "timestamp": "2025-12-14T09:36:23.320680+00:00",
        "meta_object_name": "FENGYUN 1C DEB",
        "meta_object_id": "1999-025CEN",
        "meta_epoch": "2025-12-11T09:13:55.687584",
        "meta_mean_motion": 14.19216855,
        "meta_eccentricity": 0.01284254,
        "meta_inclination": 98.7479,
        "meta_ra_of_asc_node": 40.7336,
        "meta_arg_of_pericenter": 82.0925,
        "meta_mean_anomaly": 279.4805,
        "meta_ephemeris_type": 0,
        "meta_classification_type": "U",
        "meta_norad_cat_id": 31739,
        "meta_element_set_no": 999,
        "meta_rev_at_epoch": 95467,
        "meta_bstar": 0.00014649864,
        "meta_mean_motion_dot": 2.91e-06,
        "meta_mean_motion_ddot": 0,
        "tle_line1": "1 31739U 99025CEN 25345.38467231  .00000291  00000+0  14650-3 0  9991",
        "tle_line2": "2 31739  98.7479  40.7336 0128425  82.0925 279.4805 14.19216855954678"
      },
      "geometry": {
        "type": "Point",
        "coordinates": [
          86.07050532024513,
          -77.12753453030037
        ]
      }
    },
    {
      "type": "Feature",
      "properties": {
        "norad_id": 31740,
        "name": "FENGYUN 1C DEB",
        "group": "fengyun-1c-debris",
        "lat": 11.632711067688646,
        "lon": 157.9445338219856,
        "alt_km": 741.8149747483021,
        "timestamp": "2025-12-14T09:36:23.320690+00:00",
        "meta_object_name": "FENGYUN 1C DEB",
        "meta_object_id": "1999-025CEP",
        "meta_epoch": "2025-12-12T17:41:43.521792",
        "meta_mean_motion": 14.42165009,
        "meta_eccentricity": 0.00243157,
        "meta_inclination": 99.8222,
        "meta_ra_of_asc_node": 158.077,
        "meta_arg_of_pericenter": 68.5462,
        "meta_mean_anomaly": 314.5737,
        "meta_ephemeris_type": 0,
        "meta_classification_type": "U",
        "meta_norad_cat_id": 31740,
        "meta_element_set_no": 999,
        "meta_rev_at_epoch": 65075,
        "meta_bstar": 0.0019993932,
        "meta_mean_motion_dot": 6.555e-05,
        "meta_mean_motion_ddot": 0,
        "tle_line1": "1 31740U 99025CEP 25346.73730928  .00006555  00000+0  19994-2 0  9993",
        "tle_line2": "2 31740  99.8222 158.0770 0024315  68.5462 314.5737 14.42165009650758"
      },
      "geometry": {
        "type": "Point",
        "coordinates": [
          157.9445338219856,
          11.632711067688646
        ]
      }
    },
    {
      "type": "Feature",
      "properties": {
        "norad_id": 31742,
        "name": "FENGYUN 1C DEB",
        "group": "fengyun-1c-debris",
        "lat": 75.91712652165783,
        "lon": 67.03283944877597,
        "alt_km": 791.2293081490716,
        "timestamp": "2025-12-14T09:36:23.320702+00:00",
        "meta_object_name": "FENGYUN 1C DEB",
        "meta_object_id": "1999-025CER",
        "meta_epoch": "2025-12-12T02:06:04.814208",
        "meta_mean_motion": 14.3979189,
        "meta_eccentricity": 0.00765581,
        "meta_inclination": 98.9194,
        "meta_ra_of_asc_node": 205.8694,
        "meta_arg_of_pericenter": 331.4333,
        "meta_mean_anomaly": 28.2668,
        "meta_ephemeris_type": 0,
        "meta_classification_type": "U",
        "meta_norad_cat_id": 31742,
        "meta_element_set_no": 999,
        "meta_rev_at_epoch": 96640,
        "meta_bstar": 0.0011200534,
        "meta_mean_motion_dot": 3.588e-05,
        "meta_mean_motion_ddot": 0,
        "tle_line1": "1 31742U 99025CER 25346.08755572  .00003588  00000+0  11201-2 0  9991",
        "tle_line2": "2 31742  98.9194 205.8694 0076558 331.4333  28.2668 14.39791890966402"
      },
      "geometry": {
        "type": "Point",
        "coordinates": [
          67.03283944877597,
          75.91712652165783
        ]
      }
    }
  ]
}